IRIDIUM 26              
1 24903U 97043A   25344.12317938  .00000560  00000+0  18122-3 0  9990
2 24903  86.3963  36.6629 0002042  98.5706 261.5723 14.37324163482015
IRIDIUM 22              
1 24907U 97043E   25344.12964742  .00000500  00000+0  16492-3 0  9997
2 24907  86.3966  40.3510 0002227  96.4913 263.6537 14.36118885482023
DUMMY MASS 1            
1 24925U 97048A   25344.18154992  .00000662  00000+0  70544-4 0  9994
2 24925  86.3347  53.8904 0004662 228.5920 131.4905 14.87179387531287
DUMMY MASS 2            
1 24926U 97048B   25344.17309450  .00000658  00000+0  70521-4 0  9995
2 24926  86.3348  55.5347 0005143 247.1630 112.9052 14.86929966531056
IRIDIUM 29              
1 24944U 97051A   25344.15840101  .00000711  00000+0  23485-3 0  9996
2 24944  86.3954  70.0274 0002281  93.1070 267.0388 14.36659454478531
IRIDIUM 33              
1 24946U 97051C   25344.19626610  .00000535  00000+0  18082-3 0  9990
2 24946  86.3869  69.2892 0006746 209.6544 150.4270 14.35034316477980
IRIDIUM 28              
1 24948U 97051E   25344.16023189  .00000665  00000+0  21546-3 0  9994
2 24948  86.3959  67.4414 0001820 108.3929 251.7467 14.37559423479126
IRIDIUM 36              
1 24967U 97056C   25343.74814911  .00000821  00000+0  26638-3 0  9995
2 24967  86.3958  99.2423 0002034 101.8786 258.2639 14.37780068477443
